[{"OBJECT_NAME":"GENMAT-1","OBJECT_ID":"2023-174W","EPOCH":"2026-03-09T18:03:23.351040","MEAN_MOTION":15.32594666,"ECCENTRICITY":0.00074416,"INCLINATION":97.3728,"RA_OF_ASC_NODE":146.8236,"ARG_OF_PERICENTER":169.2515,"MEAN_ANOMALY":190.8888,"EPHEMERIS_TYPE":0,"CLASSIFICATION_TYPE":"U","NORAD_CAT_ID":58276,"ELEMENT_SET_NO":999,"REV_AT_EPOCH":12973,"BSTAR":0.00042157222,"MEAN_MOTION_DOT":0.0001321,"MEAN_MOTION_DDOT":0},{"OBJECT_NAME":"STARLINK-31031","OBJECT_ID":"2024-002G","EPOCH":"2026-03-09T18:07:51.563424","MEAN_MOTION":15.30199192,"ECCENTRICITY":8.669e-5,"INCLINATION":53.1592,"RA_OF_ASC_NODE":229.7606,"ARG_OF_PERICENTER":72.8998,"MEAN_ANOMALY":287.2098,"EPHEMERIS_TYPE":0,"CLASSIFICATION_TYPE":"U","NORAD_CAT_ID":58711,"ELEMENT_SET_NO":999,"REV_AT_EPOCH":12202,"BSTAR":6.3620048e-5,"MEAN_MOTION_DOT":1.526e-5,"MEAN_MOTION_DDOT":0}]
